NORAD_CAT_ID,OBJECT_NAME,OBJECT_TYPE,EPOCH,MEAN_MOTION,ECCENTRICITY,INCLINATION,RA_OF_ASC_NODE,ARG_OF_PERICENTER,MEAN_ANOMALY,BSTAR,MEAN_MOTION_DOT,MEAN_MOTION_DDOT,TLE_LINE0,TLE_LINE1,TLE_LINE2,SEMIMAJOR_AXIS,PERIOD,APOGEE,PERIGEE,DECAYED
54183.0,STARLINK-5239,PAYLOAD,2022-11-14 14:00:01,15.73173983,0.0002498,53.2178,57.0933,28.0148,19.4362,0.00036529,0.00050904,0.0,0 STARLINK-5239,1 54183U 22141AC  22318.58334491  .00050904  00000-0  36529-3 0  9990,2 54183  53.2178  57.0933 0002498  28.0148  19.4362 15.73173983  1308,6727.969,91.535,351.515,348.154,0.0
54183.0,STARLINK-5239,PAYLOAD,2022-11-14 22:00:00,15.73231349,0.0002517,53.2174,55.4407,27.255,109.111,0.0001134,0.00015345,0.0,0 STARLINK-5239,1 54183U 22141AC  22318.91667824  .00015345  00000-0  11340-3 0  9990,2 54183  53.2174  55.4407 0002517  27.2550 109.1110 15.73231349  3077,6727.806,91.531,351.36400000000015,347.977,0.0
54183.0,STARLINK-5239,PAYLOAD,2022-11-15 06:00:00,15.73202176,0.0002242,53.2179,53.7913,23.4362,201.8974,-8.9e-05,-0.00013095,0.0,0 STARLINK-5239,1 54183U 22141AC  22319.25001157 -.00013095  00000-0 -89000-4 0  9990,2 54183  53.2179  53.7913 0002242  23.4362 201.8974 15.73202176  3129,6727.889,91.533,351.26199999999994,348.246,0.0
54183.0,STARLINK-5239,PAYLOAD,2022-11-15 14:00:01,15.73175716,0.0002566,53.2183,52.1449,19.3921,294.8666,0.00035554,0.00049524,0.0,0 STARLINK-5239,1 54183U 22141AC  22319.58334491  .00049524  00000-0  35554-3 0  9994,2 54183  53.2183  52.1449 0002566  19.3921 294.8666 15.73175716  1302,6727.964,91.535,351.556,348.103,0.0
54183.0,STARLINK-5239,PAYLOAD,2022-11-15 22:00:00,15.73254963,0.000248,53.218,50.4946,15.8649,27.3068,-0.0007254,-0.00101464,0.0,0 STARLINK-5239,1 54183U 22141AC  22319.91667824 -.00101464  00000-0 -72540-3 0  9990,2 54183  53.2180  50.4946 0002480  15.8649  27.3068 15.73254963  1302,6727.738,91.53,351.272,347.935,0.0
54183.0,STARLINK-5239,PAYLOAD,2022-11-16 04:00:00,15.73174264,0.0002357,53.2178,49.2561,17.6529,2.2463,0.00033162,0.00046128,0.0,0 STARLINK-5239,1 54183U 22141AC  22320.16667824  .00046128  00000-0  33162-3 0  9999,2 54183  53.2178  49.2561 0002357  17.6529   2.2463 15.73174264  3272,6727.969,91.535,351.4190000000001,348.24800000000016,0.0
54183.0,STARLINK-5239,PAYLOAD,2022-11-16 14:00:01,15.73101963,0.0002492,53.2176,47.1934,22.0646,199.0674,0.0018792,0.00270658,0.0,0 STARLINK-5239,1 54183U 22141AC  22320.58335648  .00270658  00000-0  18792-2 0  9999,2 54183  53.2176  47.1934 0002492  22.0646 199.0674 15.73101963  1308,6728.175,91.539,351.716,348.36300000000006,0.0
54183.0,STARLINK-5239,PAYLOAD,2022-11-16 20:00:01,15.73361655,0.0002259,53.217,45.9542,24.0362,173.6745,-0.0015806,-0.00218335,0.0,0 STARLINK-5239,1 54183U 22141AC  22320.83334491 -.00218335  00000-0 -15806-2 0  9991,2 54183  53.2170  45.9542 0002259  24.0362 173.6745 15.73361655  3373,6727.434,91.524,350.819,347.78,0.0
54183.0,STARLINK-5239,PAYLOAD,2022-11-16 22:00:08,15.73296977,0.0002131,53.2173,45.54,25.9008,284.5514,-0.0010470999999999,-0.0014568,0.0,0 STARLINK-5239,1 54183U 22141AC  22320.91675926 -.00145680  00000-0 -10471-2 0  9996,2 54183  53.2173  45.5400 0002131  25.9008 284.5514 15.73296977  1302,6727.619000000002,91.528,350.917,348.05,0.0
54183.0,STARLINK-5239,PAYLOAD,2022-11-17 04:00:00,15.73231795,0.0002542,53.2184,44.3076,18.7249,268.0701,1.0205e-05,8.12e-06,0.0,0 STARLINK-5239,1 54183U 22141AC  22321.16667824  .00000812  00000-0  10205-4 0  9994,2 54183  53.2184  44.3076 0002542  18.7249 268.0701 15.73231795  3420,6727.805,91.531,351.38,347.959,0.0
54183.0,STARLINK-5239,PAYLOAD,2022-11-17 12:00:00,15.73227293,0.0002759,53.2186,42.6599,15.4401,0.314,-0.00047598,-0.00066986,0.0,0 STARLINK-5239,1 54183U 22141AC  22321.50001157 -.00066986  00000-0 -47598-3 0  9993,2 54183  53.2186  42.6599 0002759  15.4401   0.3140 15.73227293  3485,6727.816999999999,91.532,351.539,347.826,0.0
54183.0,STARLINK-5239,PAYLOAD,2022-11-17 14:00:01,15.73178706,0.0002848,53.2187,42.2479,14.4269,113.5755,0.00018503,0.00025405,0.0,0 STARLINK-5239,1 54183U 22141AC  22321.58334491  .00025405  00000-0  18503-3 0  9994,2 54183  53.2187  42.2479 0002848  14.4269 113.5755 15.73178706  1301,6727.956,91.534,351.737,347.905,0.0
54183.0,STARLINK-5239,PAYLOAD,2022-11-17 20:00:01,15.73233005,0.0002893,53.2183,41.0102,14.8765,89.7974,-0.00047591,-0.00066994,0.0,0 STARLINK-5239,1 54183U 22141AC  22321.83334491 -.00066994  00000-0 -47591-3 0  9991,2 54183  53.2183  41.0102 0002893  14.8765  89.7974 15.73233005  3530,6727.801,91.531,351.612,347.72,0.0
54183.0,STARLINK-5239,PAYLOAD,2022-11-17 22:00:00,15.73233568,0.0002817,53.2184,40.5973,16.1368,200.7722,-0.00059256,-0.00083106,0.0,0 STARLINK-5239,1 54183U 22141AC  22321.91667824 -.00083106  00000-0 -59256-3 0  9994,2 54183  53.2184  40.5973 0002817  16.1368 200.7722 15.73233568  1304,6727.799,91.531,351.56,347.769,0.0
54183.0,STARLINK-5239,PAYLOAD,2022-11-18 06:00:00,15.73184161,0.0002748,53.2186,38.9473,20.5903,285.2474,0.00042942,0.00060044,0.0,0 STARLINK-5239,1 54183U 22141AC  22322.25001157  .00060044  00000-0  42942-3 0  9991,2 54183  53.2186  38.9473 0002748  20.5903 285.2474 15.73184161  3600,6727.94,91.534,351.654,347.956,0.0
54183.0,STARLINK-5239,PAYLOAD,2022-11-18 14:00:01,15.73205452,0.0002955,53.2186,37.2999,11.8048,22.9635,0.00032745,0.00045602,0.0,0 STARLINK-5239,1 54183U 22141AC  22322.58334491  .00045602  00000-0  32745-3 0  9990,2 54183  53.2186  37.2999 0002955  11.8048  22.9635 15.73205452  1305,6727.88,91.533,351.733,347.75699999999995,0.0
54183.0,STARLINK-5239,PAYLOAD,2022-11-18 20:00:01,15.732666,0.0002968,53.2185,36.062,13.1328,358.3425,-0.00062604,-0.00087844,0.0,0 STARLINK-5239,1 54183U 22141AC  22322.83334491 -.00087844  00000-0 -62604-3 0  9991,2 54183  53.2185  36.0620 0002968  13.1328 358.3425 15.73266600  3691,6727.705,91.529,351.56699999999995,347.574,0.0
54183.0,STARLINK-5239,PAYLOAD,2022-11-18 22:00:00,15.73238298,0.0002923,53.2188,35.649,14.4875,109.2402,-0.00032923,-0.00046659,0.0,0 STARLINK-5239,1 54183U 22141AC  22322.91667824 -.00046659  00000-0 -32923-3 0  9999,2 54183  53.2188  35.6490 0002923  14.4875 109.2402 15.73238298  1302,6727.786,91.531,351.61800000000005,347.684,0.0
54183.0,STARLINK-5239,PAYLOAD,2022-11-19 06:00:00,15.73232056,0.0002969,53.2192,33.9989,21.8656,190.8157,-0.00023131,-0.00033011,0.0,0 STARLINK-5239,1 54183U 22141AC  22323.25001157 -.00033011  00000-0 -23131-3 0  9997,2 54183  53.2192  33.9989 0002969  21.8656 190.8157 15.73232056  3750,6727.804,91.531,351.666,347.671,0.0
54183.0,STARLINK-5239,PAYLOAD,2022-11-19 14:00:01,15.73204886,0.0003304,53.2192,32.3515,21.457,280.1715,0.00013865,0.00018888,0.0,0 STARLINK-5239,1 54183U 22141AC  22323.58334491  .00018888  00000-0  13865-3 0  9999,2 54183  53.2192  32.3515 0003304  21.4570 280.1715 15.73204886  1305,6727.880999999999,91.533,351.969,347.523,0.0
54183.0,STARLINK-5239,PAYLOAD,2022-11-19 20:00:01,15.73228971,0.0003203,53.2188,31.1134,19.7121,258.6215,-0.00034999,-0.00049529,0.0,0 STARLINK-5239,1 54183U 22141AC  22323.83334491 -.00049529  00000-0 -34999-3 0  9996,2 54183  53.2188  31.1134 0003203  19.7121 258.6215 15.73228971  3841,6727.813,91.531,351.832,347.523,0.0
54183.0,STARLINK-5239,PAYLOAD,2022-11-19 22:00:00,15.73193758,0.0003086,53.219,30.7005,19.63,10.9505,0.00013555,0.00018441,0.0,0 STARLINK-5239,1 54183U 22141AC  22323.91667824  .00018441  00000-0  13555-3 0  9996,2 54183  53.2190  30.7005 0003086  19.6300  10.9505 15.73193758  1307,6727.913000000001,91.534,351.85400000000016,347.702,0.0
54183.0,STARLINK-5239,PAYLOAD,2022-11-20 14:00:01,15.73180302,0.000327,53.219,27.4037,15.0813,193.349,0.00023357,0.00032263,0.0,0 STARLINK-5239,1 54183U 22141AC  22324.58334491  .00032263  00000-0  23357-3 0  9990,2 54183  53.2190  27.4037 0003270  15.0813 193.3490 15.73180302  3963,6727.951,91.534,352.016,347.616,0.0
54183.0,STARLINK-5239,PAYLOAD,2022-11-20 22:00:00,15.73172937,0.0003091,53.219,25.7525,13.7582,283.6018,7.594e-05,0.00010038,0.0,0 STARLINK-5239,1 54183U 22141AC  22324.91667824  .00010038  00000-0  75940-4 0  9998,2 54183  53.2190  25.7525 0003091  13.7582 283.6018 15.73172937  1305,6727.972,91.535,351.917,347.7580000000001,0.0
54183.0,STARLINK-5239,PAYLOAD,2022-11-21 06:00:00,15.73225253,0.0003073,53.2193,24.103,12.8858,13.3642,-0.00052665,-0.00073988,0.0,0 STARLINK-5239,1 54183U 22141AC  22325.25001157 -.00073988  00000-0 -52665-3 0  9990,2 54183  53.2193  24.1030 0003073  12.8858  13.3642 15.73225253  4076,6727.823,91.532,351.756,347.621,0.0
54183.0,STARLINK-5239,PAYLOAD,2022-11-21 14:00:01,15.73141474,0.0003371,53.2193,22.4556,10.8014,104.3833,0.00071996,0.00101413,0.0,0 STARLINK-5239,1 54183U 22141AC  22325.58334491  .00101413  00000-0  71996-3 0  9997,2 54183  53.2193  22.4556 0003371  10.8014 104.3833 15.73141474  1301,6728.062,91.537,352.195,347.659,0.0
54183.0,STARLINK-5239,PAYLOAD,2022-11-21 20:00:01,15.73208438,0.0003296,53.2189,21.2173,11.0,80.8474,0.00012404,0.0001683,0.0,0 STARLINK-5239,1 54183U 22141AC  22325.83334491  .00016830  00000-0  12404-3 0  9992,2 54183  53.2189  21.2173 0003296  11.0000  80.8474 15.73208438  4162,6727.871,91.533,351.954,347.519,0.0
54183.0,STARLINK-5239,PAYLOAD,2022-11-21 22:00:00,15.7320165,0.0003228,53.2191,20.8044,11.0114,193.0734,0.00032343,0.00045025,0.0,0 STARLINK-5239,1 54183U 22141AC  22325.91667824  .00045025  00000-0  32343-3 0  9992,2 54183  53.2191  20.8044 0003228  11.0114 193.0734 15.73201650  1306,6727.89,91.533,351.927,347.584,0.0
54183.0,STARLINK-5239,PAYLOAD,2022-11-22 14:00:01,15.73208697,0.0003429,53.2186,17.5076,6.8756,15.1878,-8.520700000000001e-05,-0.00012572,0.0,0 STARLINK-5239,1 54183U 22141AC  22326.58335648 -.00012572  00000-0 -85207-4 0  9993,2 54183  53.2186  17.5076 0003429   6.8756  15.1878 15.73208697  4286,6727.87,91.533,352.042,347.42800000000005,0.0
